[{"OBJECT_NAME":"OBJECT AL","OBJECT_ID":"2023-085AL","EPOCH":"2026-03-09T22:26:04.970400","MEAN_MOTION":15.31857284,"ECCENTRICITY":0.000802,"INCLINATION":97.4839,"RA_OF_ASC_NODE":180.0127,"ARG_OF_PERICENTER":78.7242,"MEAN_ANOMALY":281.49,"EPHEMERIS_TYPE":0,"CLASSIFICATION_TYPE":"U","NORAD_CAT_ID":57038,"ELEMENT_SET_NO":999,"REV_AT_EPOCH":15154,"BSTAR":0.0006591637,"MEAN_MOTION_DOT":0.00020246,"MEAN_MOTION_DDOT":0},{"OBJECT_NAME":"STARLINK-31436","OBJECT_ID":"2024-036X","EPOCH":"2026-03-09T08:04:20.560512","MEAN_MOTION":15.30185538,"ECCENTRICITY":0.00012387,"INCLINATION":53.1604,"RA_OF_ASC_NODE":80.1548,"ARG_OF_PERICENTER":101.6969,"MEAN_ANOMALY":258.4171,"EPHEMERIS_TYPE":0,"CLASSIFICATION_TYPE":"U","NORAD_CAT_ID":59019,"ELEMENT_SET_NO":999,"REV_AT_EPOCH":11526,"BSTAR":-6.632871e-6,"MEAN_MOTION_DOT":-5.55e-6,"MEAN_MOTION_DDOT":0}]
